{
  "type": "FeatureCollection",
  "features": [
    {
      "type": "Feature",
      "properties": {
        "norad_id": 66926,
        "name": "STARLINK-35942",
        "group": "last-30-days",
        "lat": -3.2052914263389134,
        "lon": -153.09713811691927,
        "alt_km": 319.0324801309598,
        "timestamp": "2025-12-17T21:39:44.493069+00:00",
        "meta_object_name": "STARLINK-35942",
        "meta_object_id": "2025-286B",
        "meta_epoch": "2025-12-17T14:00:03.000384",
        "meta_mean_motion": 15.85446023,
        "meta_eccentricity": 8.023e-05,
        "meta_inclination": 53.1563,
        "meta_ra_of_asc_node": 26.1065,
        "meta_arg_of_pericenter": 71.4394,
        "meta_mean_anomaly": 89.8465,
        "meta_ephemeris_type": 0,
        "meta_classification_type": "U",
        "meta_norad_cat_id": 66926,
        "meta_element_set_no": 999,
        "meta_rev_at_epoch": 277,
        "meta_bstar": -0.0056259881,
        "meta_mean_motion_dot": -0.01225037,
        "meta_mean_motion_ddot": 0,
        "tle_line1": "1 66926U 25286B   25351.58336806 -.01225037  00000+0 -56260-2 0  9999",
        "tle_line2": "2 66926  53.1563  26.1065 0000802  71.4394  89.8465 15.85446023  2776"
      },
      "geometry": {
        "type": "Point",
        "coordinates": [
          -153.09713811691927,
          -3.2052914263389134
        ]
      }
    },
    {
      "type": "Feature",
      "properties": {
        "norad_id": 66927,
        "name": "STARLINK-35943",
        "group": "last-30-days",
        "lat": -4.861142125656728,
        "lon": -151.851650515071,
        "alt_km": 319.313420827375,
        "timestamp": "2025-12-17T21:39:44.493079+00:00",
        "meta_object_name": "STARLINK-35943",
        "meta_object_id": "2025-286C",
        "meta_epoch": "2025-12-17T14:00:03.000384",
        "meta_mean_motion": 15.85477908,
        "meta_eccentricity": 9.761e-05,
        "meta_inclination": 53.1564,
        "meta_ra_of_asc_node": 26.1024,
        "meta_arg_of_pericenter": 65.5485,
        "meta_mean_anomaly": 97.7808,
        "meta_ephemeris_type": 0,
        "meta_classification_type": "U",
        "meta_norad_cat_id": 66927,
        "meta_element_set_no": 999,
        "meta_rev_at_epoch": 277,
        "meta_bstar": -0.0057158619,
        "meta_mean_motion_dot": -0.01244205,
        "meta_mean_motion_ddot": 0,
        "tle_line1": "1 66927U 25286C   25351.58336806 -.01244205  00000+0 -57159-2 0  9996",
        "tle_line2": "2 66927  53.1564  26.1024 0000976  65.5485  97.7808 15.85477908  2775"
      },
      "geometry": {
        "type": "Point",
        "coordinates": [
          -151.851650515071,
          -4.861142125656728
        ]
      }
    },
    {
      "type": "Feature",
      "properties": {
        "norad_id": 66928,
        "name": "STARLINK-35944",
        "group": "last-30-days",
        "lat": -1.518315657633892,
        "lon": -154.3606194423078,
        "alt_km": 318.8939998970127,
        "timestamp": "2025-12-17T21:39:44.493088+00:00",
        "meta_object_name": "STARLINK-35944",
        "meta_object_id": "2025-286D",
        "meta_epoch": "2025-12-17T14:00:03.000384",
        "meta_mean_motion": 15.85416143,
        "meta_eccentricity": 9.008e-05,
        "meta_inclination": 53.1563,
        "meta_ra_of_asc_node": 26.1108,
        "meta_arg_of_pericenter": 68.9564,
        "meta_mean_anomaly": 90.2454,
        "meta_ephemeris_type": 0,
        "meta_classification_type": "U",
        "meta_norad_cat_id": 66928,
        "meta_element_set_no": 999,
        "meta_rev_at_epoch": 277,
        "meta_bstar": -0.0055428317,
        "meta_mean_motion_dot": -0.01207404,
        "meta_mean_motion_ddot": 0,
        "tle_line1": "1 66928U 25286D   25351.58336806 -.01207404  00000+0 -55428-2 0  9994",
        "tle_line2": "2 66928  53.1563  26.1108 0000900  68.9564  90.2454 15.85416143  2779"
      },
      "geometry": {
        "type": "Point",
        "coordinates": [
          -154.3606194423078,
          -1.518315657633892
        ]
      }
    },
    {
      "type": "Feature",
      "properties": {
        "norad_id": 66929,
        "name": "STARLINK-36169",
        "group": "last-30-days",
        "lat": -6.643756086174869,
        "lon": -150.50221321034996,
        "alt_km": 319.473438351165,
        "timestamp": "2025-12-17T21:39:44.493098+00:00",
        "meta_object_name": "STARLINK-36169",
        "meta_object_id": "2025-286E",
        "meta_epoch": "2025-12-17T14:00:03.000384",
        "meta_mean_motion": 15.85502079,
        "meta_eccentricity": 0.00010223,
        "meta_inclination": 53.1562,
        "meta_ra_of_asc_node": 26.0976,
        "meta_arg_of_pericenter": 65.0733,
        "meta_mean_anomaly": 100.4708,
        "meta_ephemeris_type": 0,
        "meta_classification_type": "U",
        "meta_norad_cat_id": 66929,
        "meta_element_set_no": 999,
        "meta_rev_at_epoch": 277,
        "meta_bstar": -0.0058098525,
        "meta_mean_motion_dot": -0.01263655,
        "meta_mean_motion_ddot": 0,
        "tle_line1": "1 66929U 25286E   25351.58336806 -.01263655  00000+0 -58099-2 0  9992",
        "tle_line2": "2 66929  53.1562  26.0976 0001022  65.0733 100.4708 15.85502079  2773"
      },
      "geometry": {
        "type": "Point",
        "coordinates": [
          -150.50221321034996,
          -6.643756086174869
        ]
      }
    },
    {
      "type": "Feature",
      "properties": {
        "norad_id": 66930,
        "name": "STARLINK-36206",
        "group": "last-30-days",
        "lat": -8.255310282982979,
        "lon": -149.27149049259694,
        "alt_km": 319.6450202896467,
        "timestamp": "2025-12-17T21:39:44.493109+00:00",
        "meta_object_name": "STARLINK-36206",
        "meta_object_id": "2025-286F",
        "meta_epoch": "2025-12-17T14:00:03.000384",
        "meta_mean_motion": 15.85525247,
        "meta_eccentricity": 0.00010015,
        "meta_inclination": 53.156,
        "meta_ra_of_asc_node": 26.0932,
        "meta_arg_of_pericenter": 62.5395,
        "meta_mean_anomaly": 105.0061,
        "meta_ephemeris_type": 0,
        "meta_classification_type": "U",
        "meta_norad_cat_id": 66930,
        "meta_element_set_no": 999,
        "meta_rev_at_epoch": 277,
        "meta_bstar": -0.0058394884,
        "meta_mean_motion_dot": -0.01270613,
        "meta_mean_motion_ddot": 0,
        "tle_line1": "1 66930U 25286F   25351.58336806 -.01270613  00000+0 -58395-2 0  9995",
        "tle_line2": "2 66930  53.1560  26.0932 0001001  62.5395 105.0061 15.85525247  2773"
      },
      "geometry": {
        "type": "Point",
        "coordinates": [
          -149.27149049259694,
          -8.255310282982979
        ]
      }
    },
    {
      "type": "Feature",
      "properties": {
        "norad_id": 66931,
        "name": "STARLINK-36130",
        "group": "last-30-days",
        "lat": -10.070724823305953,
        "lon": -147.868847798197,
        "alt_km": 319.8477957692485,
        "timestamp": "2025-12-17T21:39:44.493118+00:00",
        "meta_object_name": "STARLINK-36130",
        "meta_object_id": "2025-286G",
        "meta_epoch": "2025-12-17T14:00:03.000384",
        "meta_mean_motion": 15.85546727,
        "meta_eccentricity": 9.344e-05,
        "meta_inclination": 53.1561,
        "meta_ra_of_asc_node": 26.0887,
        "meta_arg_of_pericenter": 67.2878,
        "meta_mean_anomaly": 102.5294,
        "meta_ephemeris_type": 0,
        "meta_classification_type": "U",
        "meta_norad_cat_id": 66931,
        "meta_element_set_no": 999,
        "meta_rev_at_epoch": 277,
        "meta_bstar": -0.0059322584,
        "meta_mean_motion_dot": -0.0128957,
        "meta_mean_motion_ddot": 0,
        "tle_line1": "1 66931U 25286G   25351.58336806 -.01289570  00000+0 -59323-2 0  9990",
        "tle_line2": "2 66931  53.1561  26.0887 0000934  67.2878 102.5294 15.85546727  2772"
      },
      "geometry": {
        "type": "Point",
        "coordinates": [
          -147.868847798197,
          -10.070724823305953
        ]
      }
    },
    {
      "type": "Feature",
      "properties": {
        "norad_id": 66932,
        "name": "STARLINK-36177",
        "group": "last-30-days",
        "lat": -11.837652792193554,
        "lon": -146.48414405029422,
        "alt_km": 320.085267891217,
        "timestamp": "2025-12-17T21:39:44.493127+00:00",
        "meta_object_name": "STARLINK-36177",
        "meta_object_id": "2025-286H",
        "meta_epoch": "2025-12-17T14:00:03.000384",
        "meta_mean_motion": 15.85560095,
        "meta_eccentricity": 9.591e-05,
        "meta_inclination": 53.1561,
        "meta_ra_of_asc_node": 26.084,
        "meta_arg_of_pericenter": 62.5076,
        "meta_mean_anomaly": 109.5308,
        "meta_ephemeris_type": 0,
        "meta_classification_type": "U",
        "meta_norad_cat_id": 66932,
        "meta_element_set_no": 999,
        "meta_rev_at_epoch": 277,
        "meta_bstar": -0.0059639392,
        "meta_mean_motion_dot": -0.012964,
        "meta_mean_motion_ddot": 0,
        "tle_line1": "1 66932U 25286H   25351.58336806 -.01296400  00000+0 -59639-2 0  9991",
        "tle_line2": "2 66932  53.1561  26.0840 0000959  62.5076 109.5308 15.85560095  2774"
      },
      "geometry": {
        "type": "Point",
        "coordinates": [
          -146.48414405029422,
          -11.837652792193554
        ]
      }
    }
  ]
}